0 FENGYUN 1C DEB
1 30856U 99025AWS 13282.04534902  .00006311  00000-0  40954-2 0  5609
2 30856 098.2791 039.4072 0155900 082.2063 334.6074 13.97127006339082
0 FENGYUN 1C DEB
1 30856U 99025AWS 13283.84858580  .00005237  00000-0  34034-2 0  5618
2 30856 098.2772 041.0314 0155459 077.1129 044.3522 13.97144272339340
0 FENGYUN 1C DEB
1 30856U 99025AWS 13287.56071910  .00005125  00000-0  33324-2 0  5634
2 30856 098.2785 044.3783 0154888 066.6084 355.6071 13.97172796339853
0 FENGYUN 1C DEB
1 30856U 99025AWS 13288.56333513  .00004839  00000-0  31476-2 0  5643
2 30856 098.2767 045.2775 0154769 063.7415 358.6593 13.97183512339993
0 FENGYUN 1C DEB
1 30856U 99025AWS 13289.86486600  .00005055  00000-0  32879-2 0  5653
2 30856 098.2787 046.4541 0154417 060.0470 065.2422 13.97194712340189
0 FENGYUN 1C DEB
1 30856U 99025AWS 13291.15236233  .00004702  00000-0  30613-2 0  5666
2 30856 098.2793 047.6164 0153869 056.2579 061.4373 13.97208161340364
0 FENGYUN 1C DEB
1 30856U 99025AWS 13291.86999343  .00004209  00000-0  27446-2 0  5675
2 30856 098.2795 048.2642 0153453 054.0947 071.2289 13.97210863340466
0 FENGYUN 1C DEB
1 30856U 99025AWS 13293.00333220  .00003904  00000-0  25459-2 0  5683
2 30856 098.2793 049.2848 0153772 050.9957 011.8029 13.97217974340612
0 FENGYUN 1C DEB
1 30856U 99025AWS 13294.29048578  .00004614  00000-0  30045-2 0  5691
2 30856 098.2803 050.4480 0153615 047.3764 006.2053 13.97228496340797
0 FENGYUN 1C DEB
1 30856U 99025AWS 13295.29298183  .00004943  00000-0  32175-2 0  5704
2 30856 098.2801 051.3518 0153433 044.4992 008.8642 13.97236622340934
